C/2019 O2 (PANSTARRS),e,93.3076,48.2601,129.5854,58.64530,0.0021946,0.83491440,1.4260,01/15.0/2025,2000,g  5.0,4.0
# From MPEC 2024-TP3
C/2019 O3 (Palomar),h,03/08.9689/2021,89.8006,300.4696,60.1155,1.003363,8.821120,2000,3.5,4.0
# From MPEC 2021-P47
A/2019 O4,e,115.0287,354.9281,61.8435,33.26065,0.0051382,0.89045101,9.2478,01/15.0/2025,2000,g 15.5,2.0
# From MPEC 2024-EF7
C/2019 Q1 (Lemmon),h,07/21.9360/2020,155.7272,42.4613,56.2598,1.002231,5.004478,2000,8.5,4.0
# From MPC117072
A/2019 Q2,e,158.9888,188.0925,176.4969,58.70426,0.0021913,0.97849347,0.0000,07/23.2316/2019,2000,g 18.0,2.0
# From MPC117072
P/2019 S2 (PANSTARRS),e,10.4637,93.1803,216.9965,4.746756,0.0953035,0.20471100,205.7029,01/15.0/2025,2000,g 13.5,4.0
# From MPEC 2022-CN4
P/2019 S3 (PANSTARRS),e,8.6936,150.1457,213.0923,3.414689,0.1561987,0.47083044,307.1815,01/15.0/2025,2000,g 18.3,4.0
# From MPEC 2021-S45
C/2019 S4 (Lemmon),e,92.1073,63.1583,71.3726,246.1710,0.0002552,0.98602551,0.0000,04/09.0552/2020,2000,g 11.0,4.0
# From MPEC 2023-N01
A/2019 T1,e,120.8375,6.9367,91.0077,38.81011,0.0040765,0.88981783,5.9556,01/15.0/2025,2000,g 13.0,2.0
# From MPEC 2023-R20
C/2019 T2 (Lemmon),e,111.3954,155.6561,239.4019,4214,0.0000036,0.99937255,0.0000,04/22.6540/2021,2000,g  9.0,4.0
# From MPEC 2023-UR6
C/2019 T3 (ATLAS),e,121.8639,139.5390,112.4825,3927,0.0000040,0.99848387,0.0000,03/04.5307/2021,2000,g  6.8,4.0
# From MPEC 2024-VJ2
C/2019 T4 (ATLAS),e,53.6259,199.9171,351.1088,873.2915,0.0000382,0.99514671,0.0000,06/08.6335/2022,2000,g  5.0,4.0
# From MPEC 2021-P47
P/2019 T5 (ATLAS),e,33.5002,247.6107,189.6089,8.005420,0.0435139,0.80984323,86.6695,01/15.0/2025,2000,g 15.0,4.0
# From MPEC 2021-P47
P/2019 T6 (PANSTARRS),e,18.7005,71.2429,329.0504,5.441801,0.0776408,0.62271772,147.0431,01/15.0/2025,2000,g 15.5,4.0
# From MPC118096
P/2019 U4 (PANSTARRS),e,11.6961,200.0094,181.0729,3.519108,0.1492984,0.47583736,290.0566,01/15.0/2025,2000,g 19.0,4.0
# From MPEC 2025-AH4
C/2019 U5 (PANSTARRS),h,03/29.5494/2023,113.5125,2.6217,181.4535,1.000421,3.623848,2000,4.5,4.0
# From MPEC 2022-H04
C/2019 U6 (Lemmon),e,60.9709,235.7792,329.4469,307.7260,0.0001826,0.99704876,0.0000,06/18.2585/2020,2000,g 10.0,4.0
# From MPEC 2022-N37
C/2019 V1 (Borisov),e,61.9503,83.1479,51.1812,2243,0.0000093,0.99862129,0.0000,07/17.2703/2020,2000,g 11.0,4.0
# From MPEC 2022-L66
P/2019 V2 (Groeller),e,11.8069,189.1537,335.6169,7.494433,0.0480392,0.33167647,74.5164,01/15.0/2025,2000,g 10.0,4.0
# From MPEC 2023-A50
P/2019 W1 (PANSTARRS),e,23.4700,35.3694,18.8611,4.548471,0.1016029,0.26729935,210.8602,01/15.0/2025,2000,g 12.9,4.0
# From MPEC 2021-P47
P/2019 X1 (Pruyne),e,10.2479,43.6792,36.9372,6.177965,0.0641854,0.30396866,128.4759,01/15.0/2025,2000,g 10.4,4.0
# From MPEC 2020-C98
P/2019 X2 (Pan-STARRS),e,15.8951,250.8386,213.4878,3.634741,0.1422309,0.50040848,264.8077,01/15.0/2025,2000,g 18.0,4.0
# From MPC119999
C/2019 Y1 (ATLAS),e,73.3249,31.5074,57.9067,87.92716,0.0011954,0.99059880,0.0000,03/16.9988/2020,2000,g 13.7,4.0
# From MPEC 2025-AH4
P/2019 Y3 (Catalina),e,24.5818,139.3089,2.5486,3.016498,0.1881263,0.69135433,350.9991,01/15.0/2025,2000,g 18.5,4.0
# From MPEC 2024-A43
C/2019 Y4 (ATLAS),e,44.9774,120.7727,177.4234,339.3547,0.0001577,0.99924241,0.0000,05/30.0220/2020,2000,g 11.8,6.0
# From MPEC 2020-L06
C/2019 Y4-A (ATLAS),h,05/30.0678/2020,45.4138,121.1393,177.2562,1.001384,0.255252,2000,11.6,6.0
# From MPEC 2023-J29
C/2019 Y4-B (ATLAS),e,45.1063,120.8805,177.3674,10347,0.0000009,0.99997520,0.0000,05/30.0342/2020,2000,g 12.1,6.0
# From MPEC 2020-L06
C/2019 Y4-C (ATLAS),h,05/30.0200/2020,45.1972,120.8666,177.2891,1.002112,0.256327,2000,12.7,6.0
# From MPEC 2020-L06
C/2019 Y4-D (ATLAS),e,45.2487,121.2302,177.4306,67.64807,0.0017714,0.99622113,0.0000,05/30.1246/2020,2000,g 12.5,6.0
# From MPEC 2023-A50
C/2019 Y5 (PANSTARRS),e,82.7654,51.7552,303.6472,697.4092,0.0000535,0.99292943,0.0000,08/16.9006/2019,2000,g 11.0,4.0
# From MPEC 2023-A50
A/2020 A1,e,149.0318,119.0848,302.3983,25.47716,0.0076644,0.93447714,14.3498,01/15.0/2025,2000,g 18.0,2.0
# From MPEC 2022-YN2
C/2020 A2 (Iwamoto),e,120.5181,286.2013,68.0126,1029,0.0000298,0.99905352,0.0000,01/07.5931/2020,2000,g 13.5,4.0
# From MPEC 2023-A50
C/2020 A3 (ATLAS),e,146.6276,120.8006,268.2541,8560,0.0000012,0.99932791,0.0000,06/27.5288/2019,2000,g  8.0,4.0
# From MPEC 2022-P91
P/2020 A4 (PANSTARRS-Lemmon),e,24.9995,312.2992,144.8632,8.200182,0.0419729,0.65449744,78.8571,01/15.0/2025,2000,g 15.0,4.0
# From MPEC 2020-N08
A/2020 B1,e,18.5357,309.8318,154.8319,51.91887,0.0026346,0.96651872,4.8623,01/15.0/2025,2000,g 21.0,2.0
# From MPEC 2020-HN5
C/2020 B2 (Lemmon),e,55.7532,354.2124,143.6038,67.75943,0.0017671,0.95932543,3.2070,01/15.0/2025,2000,g 10.0,4.0
# From MPEC 2022-N37
C/2020 B3 (Rankin),e,20.7071,185.7784,324.8981,997.6173,0.0000313,0.99666391,0.0000,10/20.3973/2019,2000,g 13.0,4.0
# From MPEC 2023-KD6
P/2020 B4 (Sheppard),e,11.6046,185.9602,341.9925,7.970812,0.0437976,0.19262660,50.5254,01/15.0/2025,2000,g 10.5,4.0
# From MPEC 2025-AH4
C/2020 F2 (ATLAS),h,07/12.9550/2022,163.5896,250.3047,48.2533,1.003365,8.813709,2000,4.5,4.0
# From MPEC 2021-O56
C/2020 F3 (NEOWISE),e,129.1502,61.0954,37.3767,395.6670,0.0001252,0.99925644,0.0000,07/04.6499/2020,2000,g  7.5,5.2
# From MPEC 2024-UQ8
C/2020 F5 (MASTER),e,52.2235,350.5255,310.6475,166.1921,0.0004600,0.97396384,0.0000,03/16.4642/2021,2000,g  6.5,3.2
# From MPEC 2020-L06
C/2020 F6 (PANSTARRS),e,174.5837,207.8629,344.3756,353.7951,0.0001481,0.99011174,0.0000,04/10.8393/2020,2000,g 14.5,2.8
# From MPEC 2024-A43
C/2020 F7 (Lemmon),e,93.9736,321.8311,227.9653,557.5514,0.0000749,0.99043346,0.0000,11/13.6938/2021,2000,g  7.0,4.0
# From MPEC 2025-AE4
C/2020 F8 (SWAN),e,110.5473,259.7889,68.0942,2532,0.0000077,0.99982955,0.0000,05/26.2143/2020,2000,g 10.0,4.0
# From MPEC 2020-L06
P/2020 G1 (Pimentel),e,18.5109,240.1091,207.6318,3.606990,0.1438754,0.86080395,253.6454,01/15.0/2025,2000,g 17.0,4.0
# From MPEC 2025-AE4
C/2020 H2 (Pruyne),e,124.7874,277.6726,26.5983,183.6321,0.0003961,0.99548746,0.0000,04/27.2758/2020,2000,g 14.0,3.2
# From MPEC 2020-HM1
C/2020 H3 (Wierzchos),p,06/05.7162/2020,62.5292,30.4456,2.300288,270.6227,2000,13.5,4.0
# From MPEC 2025-AE4
C/2020 H4 (Leonard),e,84.2881,307.4899,116.7797,126.6511,0.0006915,0.99260598,0.0000,08/29.2003/2020,2000,g 15.0,3.2
# From MPEC 2024-P23
C/2020 H5 (Robinson),e,70.2404,210.6212,326.2697,5333,0.0000025,0.99824948,0.0000,12/09.9242/2020,2000,g  5.0,4.0
# From MPEC 2024-JU4
C/2020 H6 (ATLAS),e,79.9826,213.7054,20.2102,2233,0.0000093,0.99789651,0.0000,09/29.7702/2021,2000,g  8.0,3.2
# From MPEC 2020-KB7
C/2020 H7 (Lemmon),e,135.9235,323.5194,82.6780,1405,0.0000187,0.99685380,0.0000,06/02.9510/2020,2000,g 11.0,4.0
# From MPEC 2021-N06
C/2020 H8 (PANSTARRS),e,99.7072,68.4449,128.8511,595.5660,0.0000678,0.99216473,0.0000,06/04.7151/2020,2000,g 10.5,4.0
# From MPEC 2022-ED3
A/2020 H9,e,137.8758,213.1486,312.6714,349.4826,0.0001509,0.99266382,0.0000,12/21.9293/2019,2000,g 18.0,2.0
# From MPEC 2023-HN7
C/2020 H11 (PANSTARRS-Lemmon),h,09/13.1820/2020,151.3777,303.0552,91.3825,1.000405,7.621336,2000,8.5,4.0
# From MPEC 2023-KD6
C/2020 J1 (SONEAR),e,142.3062,226.6005,341.6188,90008,0.0000000,0.99996282,0.0000,04/18.2857/2021,2000,g  8.5,3.2
# From MPEC 2025-AH4
C/2020 K1 (PANSTARRS),e,89.6710,94.3668,213.9746,3400,0.0000050,0.99909608,0.0000,05/08.9151/2023,2000,g  5.5,4.0
# From MPEC 2021-N06
C/2020 K2 (PANSTARRS),h,08/05.0901/2020,90.9929,288.4298,67.3247,1.001679,8.880379,2000,10.8,4.0
# From MPEC 2020-KF9
C/2020 K3 (Leonard),p,06/01.0032/2020,129.0152,64.4924,1.583069,28.3546,2000,14.5,4.0
# From MPEC 2020-L06
C/2020 K4 (PANSTARRS),e,125.5849,264.2765,308.8200,23.94730,0.0084104,0.92706465,14.9471,01/15.0/2025,2000,g 16.5,4.0
# From MPEC 2021-R75
C/2020 K5 (PANSTARRS),h,06/04.6234/2021,67.0677,86.1412,249.6395,1.000941,1.539799,2000,11.0,4.0
# From MPEC 2023-N01
C/2020 K6 (Rankin),h,09/15.1483/2021,103.6340,291.5945,44.2996,1.002652,5.866952,2000,8.0,4.0
# From MPEC 2023-A50
C/2020 K7 (PANSTARRS),e,32.0445,286.1275,358.1275,95.34959,0.0010586,0.93296983,2.0199,01/15.0/2025,2000,g  8.0,4.0
# From MPEC 2021-P47
C/2020 K8 (Catalina-ATLAS),h,09/15.5710/2020,31.4042,181.3764,260.0814,1.000292,0.470991,2000,15.0,3.2
# From MPEC 2021-BE3
P/2020 K9 (Lemmon-PANSTARRS),e,23.1946,166.3135,197.0965,4.206545,0.1142394,0.32039107,163.7321,01/15.0/2025,2000,g 12.5,4.0
# From MPEC 2023-C45
P/2020 M1 (PANSTARRS),e,8.5341,142.6092,72.5302,5.313285,0.0804747,0.47322700,148.8604,01/15.0/2025,2000,g 14.5,4.0
# From MPEC 2022-H30
C/2020 M3 (ATLAS),e,23.4727,71.1646,328.6494,27.28324,0.0069161,0.95333706,10.6651,01/15.0/2025,2000,g 14.5,4.0
# From MPEC 2023-N01
A/2020 M4,h,11/23.2414/2020,160.1083,348.6188,104.5159,1.000229,5.942657,2000,14.5,2.0
# From MPEC 2024-NE4
P/2020 MK4 (PANSTARRS),e,6.7828,0.6762,93.2783,6.222291,0.0635007,0.01458011,307.9495,01/15.0/2025,2000,g  8.0,4.0
# From MPEC 2023-FK0
C/2020 M5 (ATLAS),h,08/19.8306/2021,93.1843,352.0407,126.2466,1.000179,2.999661,2000,9.0,4.0
# From MPEC 2022-GA9
C/2020 N1 (PANSTARRS),h,03/12.9884/2021,29.7614,279.8622,186.8138,1.000769,1.316963,2000,12.5,4.0
# From MPEC 2021-P47
C/2020 N2 (ATLAS),e,161.0379,257.1864,331.2433,102.0676,0.0009558,0.98250248,0.0000,08/24.3545/2020,2000,g 16.0,3.2
# From MPEC 2024-JU4
C/2020 O2 (Amaral),e,71.7614,256.7950,10.2060,1455948,0.0000000,0.99999666,0.0000,08/27.5720/2021,2000,g  8.0,3.2
# From MPEC 2023-C45
P/2020 O3 (PANSTARRS),e,8.4444,266.8177,81.3412,4.646588,0.0984017,0.10244470,142.6322,01/15.0/2025,2000,g 12.0,4.0
# From MPEC 2021-BE3
C/2020 P1 (NEOWISE),h,10/21.0948/2020,45.1520,53.4793,8.9194,1.000417,0.341185,2000,14.0,3.2
# From MPEC 2024-JU4
C/2020 P3 (ATLAS),h,04/22.6654/2021,61.8683,19.4789,82.3330,1.003444,6.814792,2000,6.0,4.0
# From MPEC 2022-PB4
C/2020 PV6 (PANSTARRS),e,128.1693,329.1352,71.3032,41.79887,0.0036472,0.94517703,4.4021,01/15.0/2025,2000,g 10.0,4.0
# From MPEC 2022-L66
